[{"OBJECT_NAME":"STARLINK-30789","OBJECT_ID":"2023-166S","EPOCH":"2026-03-09T15:40:43.799808","MEAN_MOTION":15.30179862,"ECCENTRICITY":0.00015567,"INCLINATION":53.1596,"RA_OF_ASC_NODE":219.7891,"ARG_OF_PERICENTER":88.6419,"MEAN_ANOMALY":271.476,"EPHEMERIS_TYPE":0,"CLASSIFICATION_TYPE":"U","NORAD_CAT_ID":58166,"ELEMENT_SET_NO":999,"REV_AT_EPOCH":13317,"BSTAR":-4.5699263e-5,"MEAN_MOTION_DOT":-1.712e-5,"MEAN_MOTION_DDOT":0},{"OBJECT_NAME":"GEOSCAN 1 (RS92S1)","OBJECT_ID":"2025-155E","EPOCH":"2026-03-09T22:44:05.846496","MEAN_MOTION":15.28410635,"ECCENTRICITY":0.00087099,"INCLINATION":97.4463,"RA_OF_ASC_NODE":37.403,"ARG_OF_PERICENTER":153.6429,"MEAN_ANOMALY":206.5255,"EPHEMERIS_TYPE":0,"CLASSIFICATION_TYPE":"U","NORAD_CAT_ID":64880,"ELEMENT_SET_NO":999,"REV_AT_EPOCH":6560,"BSTAR":0.00054367431,"MEAN_MOTION_DOT":0.00014993,"MEAN_MOTION_DDOT":0}]
